CZ-2C R/B               
1 28480U 04046B   25324.73072717  .00000184  00000+0  82858-4 0  9993
2 28480  98.1968 241.4791 0140589 116.8588 244.7046 14.26926509 92964
ARIANE 5 R/B            
1 28499U 04049H   25325.09044235  .00000891  00000+0  10544-3 0  9997
2 28499  98.2519 124.5979 0084307 343.8684  15.9848 14.84944699129671
CZ-2D R/B               
1 28738U 05024B   25324.99966977  .00022574  00000+0  37929-3 0  9999
2 28738  97.3644 331.9009 0008066  68.5550 291.6561 15.51745563122880
ALOS (DAICHI)           
1 28931U 06002A   25324.42861708  .00001632  00000+0  28430-3 0  9994
2 28931  98.1058 276.0789 0000788  63.9156 296.2131 14.69387232 57436
H-2A R/B                
1 28932U 06002B   25324.97860672  .00009911  00000+0  53083-3 0  9994
2 28932  98.2314  97.9631 0054400 250.7253 108.8087 15.13961313 77970
RESURS-DK 1             
1 29228U 06021A   25324.93354683  .00002355  00000+0  14310-3 0  9995
2 29228  69.9304 158.1838 0007226 276.7417  83.2926 15.11979763 71086
CZ-4B R/B               
1 29507U 06046C   25325.11531976  .00004799  00000+0  25327-3 0  9999
2 29507  97.5764   5.3138 0032650 284.3146  75.4462 15.15565534 43596
CZ-2C R/B               
1 31114U 07010B   25324.94876481  .00000168  00000+0  96617-4 0  9998
2 31114  98.3970  78.6975 0058000 249.9834 109.5093 14.20196585964289
COSMO-SKYMED 1          
1 31598U 07023A   25325.17880091  .00003507  00000+0  32169-3 0  9997
2 31598  97.8836 150.4397 0001045  86.5697 273.5643 14.95535729998678
COSMOS 2428             
1 31792U 07029A   25325.07418910 -.00000173  00000+0 -67140-4 0  9991
2 31792  70.9370  71.3654 0002519  59.8330 300.3041 14.12887259948752
SL-16 R/B               
1 31793U 07029B   25324.70435500  .00000198  00000+0  12739-3 0  9993
2 31793  70.9778  41.4761 0002238 263.2874 262.1346 14.14815515949958
KORONAS-FOTON           
1 33504U 09003A   25325.58346924  .00011654  00000+0  28547-3 0  9990
2 33504  82.4333  28.0146 0011684 179.1332 180.9937 15.40533064929083
CZ-2C R/B               
1 37731U 11030B   25325.45389756  .00002047  00000+0  26628-3 0  9999
2 37731  97.8380 280.0371 0052681 344.3083 128.2445 14.80794338774074
H-2A R/B                
1 38341U 12025E   25325.48040461  .00004397  00000+0  40853-3 0  9998
2 38341  98.4563 279.0782 0044164 307.9548  51.7683 14.94238206732052
SHIJIAN-16 (SJ-16)      
1 39358U 13057A   25325.68054016  .00002001  00000+0  20026-3 0  9996
2 39358  74.9746  29.4983 0016811  10.1950 349.9576 14.91896043655391
SL-4 R/B                
1 39679U 14021B   25325.47466814  .00013850  00000+0  33624-3 0  9996
2 39679  51.6044 143.8805 0103511  69.7651 291.4425 15.35913916639626
ALOS-2                  
1 39766U 14029A   25325.64158824 -.00000641  00000+0 -78978-4 0  9997
2 39766  97.9233  60.7873 0001359  96.2925 263.8442 14.79475278620896
YAOGAN-29               
1 41038U 15069A   25325.69897557  .00000523  00000+0  71255-4 0  9993
2 41038  98.0239 348.8011 0001621  32.5846 327.5466 14.82848940539875
ASTRO-H (HITOMI)        
1 41337U 16012A   25325.26217883  .00003549  00000+0  21219-3 0  9990
2 41337  31.0013 335.8101 0009770 320.7682  39.2247 15.09162307535835
HXMT (HUIYAN)           
1 42758U 17034A   25325.70857020  .00007524  00000+0  39130-3 0  9993
2 42758  43.0149 256.3117 0034151 272.1627  87.5310 15.15960241466144
CZ-2C R/B               
1 43521U 18054D   25325.07297686  .00078922  00000+0  63719-3 0  9991
2 43521  35.1364 327.2752 0022513 287.1809  72.6458 15.69281838411644
SAOCOM 1A               
1 43641U 18076A   25325.67610006  .00000532  00000+0  73429-4 0  9991
2 43641  97.8852 150.4043 0001572  91.4483 268.6910 14.82143582385365
H-2A R/B                
1 43682U 18084L   25325.46679041  .00019708  00000+0  55049-3 0  9998
2 43682  98.8785 155.1550 0028871  38.8508 321.4799 15.36353375389130
SAOCOM 1B               
1 46265U 20059A   25325.16729704  .00000537  00000+0  73966-4 0  9991
2 46265  97.8847 149.0045 0001330  89.7750 270.3615 14.82151304282672
CSS (TIANHE)            
1 48274U 21035A   25324.99414343  .00019927  00000+0  24864-3 0  9993
2 48274  41.4651 148.6323 0007584 207.2084 152.8358 15.59367998260633
COSMOS 2550             
1 48865U 21056A   25325.14229087  .00000018  00000+0  63788-5 0  9990
2 48865  67.1438   9.2617 0007888 267.8284  92.1967 15.33848809246819
CZ-2C R/B               
1 52794U 22058K   25324.98514176  .00023905  00000+0  45194-3 0  9995
2 52794  50.1882 154.3661 0047934 108.4429 252.1757 15.46981525193260
CZ-2C R/B               
1 54039U 22132E   25325.48413214  .00030477  00000+0  48149-3 0  9994
2 54039  97.2946 321.3059 0023652 126.8491 233.4936 15.53112559173538
GSLV R/B                
1 54149U 22138AN  25325.05024443  .00002208  00000+0  19370-3 0  9992
2 54149  87.3848 202.7342 0021415 179.4425 180.6834 14.95969216167688
XRISM                   
1 57800U 23137A   25325.02304922  .00006093  00000+0  35961-3 0  9999
2 57800  31.0030 265.7261 0007721  24.0441 336.0557 15.10042607121346
ACS3                    
1 59588U 24077B   25324.86006485  .00035965  00000+0  31641-1 0  9991
2 59588  97.2950 285.3355 0067409  17.2641 343.0790 13.84073880 79113
